<?xml version="1.0" encoding="UTF-8"?>
<kml xmlns="http://www.opengis.net/kml/2.2" xmlns:gx="http://www.google.com/kml/ext/2.2">
    <Document id="1">
        <Style id="8">
            <LineStyle id="9">
                <color>ffff0000</color>
                <colorMode>normal</colorMode>
                <width>3</width>
            </LineStyle>
            <PolyStyle id="10">
                <color>50ff0000</color>
                <colorMode>normal</colorMode>
                <fill>1</fill>
                <outline>1</outline>
            </PolyStyle>
        </Style>
        <Style id="17">
            <LineStyle id="18">
                <color>ffff0000</color>
                <colorMode>normal</colorMode>
                <width>3</width>
            </LineStyle>
            <PolyStyle id="19">
                <color>50ff0000</color>
                <colorMode>normal</colorMode>
                <fill>1</fill>
                <outline>1</outline>
            </PolyStyle>
        </Style>
        <Style id="26">
            <LineStyle id="27">
                <color>ffff0000</color>
                <colorMode>normal</colorMode>
                <width>3</width>
            </LineStyle>
            <PolyStyle id="28">
                <color>50ff0000</color>
                <colorMode>normal</colorMode>
                <fill>1</fill>
                <outline>1</outline>
            </PolyStyle>
        </Style>
        <Placemark id="3">
            <name>Impact Ellipse 1</name>
            <visibility>1</visibility>
            <styleUrl>#8</styleUrl>
            <MultiGeometry id="2">
                <Polygon id="4">
                    <outerBoundaryIs>
                        <LinearRing id="6">
                            <coordinates>-8.279476565154408,39.386807438494984,0.0 -8.279562437091096,39.38672660699551,0.0 -8.279636595773274,39.38663799241456,0.0 -8.2796987485514,39.386541944495974,0.0 -8.279748650167534,39.38643884231634,0.0 -8.279786103722778,39.38632909278866,0.0 -8.279810961453714,39.3862131290562,0.0 -8.279823125314802,39.38609140878292,0.0 -8.279822547364413,39.38596441234707,0.0 -8.279809229953038,39.3858326409454,0.0 -8.279783225712915,39.385696614615085,0.0 -8.279744637349136,39.38555687018148,0.0 -8.279693617233086,39.385413959139655,0.0 -8.279630366799822,39.38526844547806,0.0 -8.279555135751817,39.38512090345301,0.0 -8.279468221072204,39.38497191532264,0.0 -8.279369965851442,39.38482206904939,0.0 -8.27926075793208,39.38467195597993,0.0 -8.279141028376939,39.384522168511936,0.0 -8.279011249766816,39.384373297756504,0.0 -8.27887193433444,39.38422593120589,0.0 -8.278723631942029,39.38408065041547,0.0 -8.2785669279105,39.38393802870909,0.0 -8.278402440708838,39.38379862891693,0.0 -8.278230819512823,39.38366300115483,0.0 -8.278052741642712,39.38353168065368,0.0 -8.277868909890014,39.38340518564764,0.0 -8.2776800497439,39.38328401532927,0.0 -8.277486906528194,39.38316864787992,0.0 -8.277290242460257,39.38305953858287,0.0 -8.27709083364334,39.382957118026866,0.0 -8.276889467004297,39.38286179040702,0.0 -8.276686937188705,39.38277393192984,0.0 -8.276484043425656,39.382693889328614,0.0 -8.27628158637457,39.382621978495116,0.0 -8.276080364966443,39.38255848323289,0.0 -8.275881173252024,39.382503654137146,0.0 -8.27568479726928,39.38245770760566,0.0 -8.275492011942536,39.3824208249845,0.0 -8.275303578025502,39.38239315185218,0.0 -8.275120239100218,39.38237479744471,0.0 -8.274942718643736,39.38236583422423,0.0 -8.274771717174119,39.382366297592526,0.0 -8.274607909486992,39.38237618575099,0.0 -8.274451941993512,39.38239545970714,0.0 -8.274304430170274,39.382424043428074,0.0 -8.274165956131185,39.38246182413997,0.0 -8.274037066330886,39.382508652772714,0.0 -8.273918269408759,39.38256434454758,0.0 -8.273810034182027,39.382628679706066,0.0 -8.273712787795864,39.38270140437659,0.0 -8.273626914037806,39.38278223157599,0.0 -8.273552751823106,39.382870842341646,0.0 -8.273490593857016,39.382966886989934,0.0 -8.273440685479297,39.383069986495805,0.0 -8.273403223695478,39.38317973398844,0.0 -8.273378356398746,39.383295696356655,0.0 -8.273366181785502,39.383417415958036,0.0 -8.27336674796694,39.383544412424875,0.0 -8.273380052778172,39.383676184559974,0.0 -8.273406043785675,39.38381221231459,0.0 -8.273444618493041,39.38395195884088,0.0 -8.273495624744259,39.384094872610795,0.0 -8.273558861322924,39.38424038959286,0.0 -8.273634078745056,39.38438793547837,0.0 -8.273720980242418,39.38453692794835,0.0 -8.273819222932437,39.38468677897189,0.0 -8.273928419170183,39.3848368971274,0.0 -8.274048138077061,39.38498668993704,0.0 -8.274177907240203,39.38513556620543,0.0 -8.274317214575868,39.38528293835336,0.0 -8.27446551034952,39.38542822473721,0.0 -8.274622209344631,39.38557085194493,0.0 -8.274786693171643,39.385710257059564,0.0 -8.274958312707993,39.38584588988132,0.0 -8.2751363906596,39.38597721509954,0.0 -8.275320224233667,39.38610371440566,0.0 -8.275509087912305,39.386224888539296,0.0 -8.275702236315972,39.386340259258965,0.0 -8.275898907145496,39.386449371229766,0.0 -8.27609832419099,39.38655179382082,0.0 -8.276299700395828,39.38664712280491,0.0 -8.276502240963577,39.386734981954014,0.0 -8.276705146495575,39.386815024524225,0.0 -8.276907616146804,39.3868869346243,0.0 -8.27710885078755,39.38695042846223,0.0 -8.27730805615838,39.387005255465276,0.0 -8.27750444600596,39.38705119926868,0.0 -8.277697245187305,39.38708807856938,0.0 -8.277885692730207,39.387115747841214,0.0 -8.278069044837745,39.38713409790908,0.0 -8.278246577824971,39.38714305637928,0.0 -8.278417590976202,39.38714258792491,0.0 -8.278581409311592,39.38713269442483,0.0 -8.278737386252054,39.38711341495573,0.0 -8.278884906172005,39.387084825637466,0.0 -8.27902338682985,39.387047039332124,0.0 -8.279152281666565,39.38700020519806,0.0 -8.279271081963346,39.38694450810072,0.0 -8.279379318849742,39.386880167882566,0.0</coordinates>
                        </LinearRing>
                    </outerBoundaryIs>
                </Polygon>
            </MultiGeometry>
        </Placemark>
        <Placemark id="12">
            <name>Impact Ellipse 2</name>
            <visibility>1</visibility>
            <styleUrl>#17</styleUrl>
            <MultiGeometry id="11">
                <Polygon id="13">
                    <outerBoundaryIs>
                        <LinearRing id="15">
                            <coordinates>-8.282358708170143,39.38886034891648,0.0 -8.282530450220495,39.388698681617264,0.0 -8.282678764050456,39.38852144864008,0.0 -8.282803064416704,39.38832934953272,0.0 -8.28290286088524,39.38812314249993,0.0 -8.282977759764966,39.38790364140991,0.0 -8.283027465658888,39.387671712581295,0.0 -8.283051782626838,39.38742827136343,0.0 -8.283050614955188,39.387174278523474,0.0 -8.283023967530578,39.38691073645437,0.0 -8.282971945816241,39.3866386852189,0.0 -8.282894755431082,39.38635919844527,0.0 -8.282792701333257,39.38607337909061,0.0 -8.282666186611563,39.38578235508875,0.0 -8.282515710889436,39.38548727489996,0.0 -8.282341868348018,39.38518930297962,0.0 -8.282145345376104,39.38488961518409,0.0 -8.28192691785637,39.38458939413187,0.0 -8.28168744809864,39.384289824538,0.0 -8.281427881432398,39.383992088540445,0.0 -8.281149242472019,39.38369736103685,0.0 -8.280852631069584,39.38340680504963,0.0 -8.280539217971233,39.38312156713826,0.0 -8.280210240194311,39.38284277287637,0.0 -8.279866996143538,39.38257152241172,0.0 -8.279510840485552,39.382308886126324,0.0 -8.279143178802038,39.38205590041409,0.0 -8.278765462042573,39.38181356359239,0.0 -8.278379180799075,39.38158283196373,0.0 -8.277985859424424,39.38136461604315,0.0 -8.27758705001849,39.38115977696597,0.0 -8.277184326305218,39.38096912309037,0.0 -8.27677927742492,39.38079340680784,0.0 -8.276373501666244,39.38063332157441,0.0 -8.27596860016246,39.380489499174075,0.0 -8.27556617057691,39.38036250722554,0.0 -8.275167800802452,39.38025284694167,0.0 -8.274775062699709,39.380160951151005,0.0 -8.274389505898746,39.38008718258875,0.0 -8.274012651688553,39.380031832464226,0.0 -8.273645987018378,39.37999511931039,0.0 -8.273290958634494,39.37997718811987,0.0 -8.272948967375468,39.379978109771194,0.0 -8.272621362648367,39.37999788074728,0.0 -8.272309437107612,39.38003642314742,0.0 -8.272014421557435,39.380093584992714,0.0 -8.271737480097977,39.38016914082381,0.0 -8.27147970553414,39.38026279258859,0.0 -8.271242115065249,39.380374170816424,0.0 -8.271025646272511,39.380502836074164,0.0 -8.270831153420069,39.380648280698445,0.0 -8.270659404084235,39.38080993079735,0.0 -8.270511076124187,39.380987148513434,0.0 -8.270386755006086,39.381179234539566,0.0 -8.270286931491206,39.3813854308773,0.0 -8.270211999697176,39.38160492382714,0.0 -8.270162255540074,39.381836847198805,0.0 -8.270137895563494,39.382080285728996,0.0 -8.270139016159339,39.38233427869294,0.0 -8.270165613183384,39.38259782369577,0.0 -8.270217581967245,39.38286988062842,0.0 -8.270294717726756,39.38314937577281,0.0 -8.270396716365243,39.38343520603985,0.0 -8.270523175668538,39.38372624332356,0.0 -8.270673596887184,39.38402133895425,0.0 -8.270847386699591,39.384319328233,0.0 -8.271043859548532,39.38461903502967,0.0 -8.271262240341803,39.38491927642615,0.0 -8.271501667506483,39.385218867386534,0.0 -8.271761196384803,39.38551662543587,0.0 -8.27203980295833,39.385811375328785,0.0 -8.27233638788574,39.386101953689746,0.0 -8.272649780838421,39.38638721360645,0.0 -8.272978745116738,39.3866660291582,0.0 -8.273321982528852,39.38693729986151,0.0 -8.27367813851282,39.38719995501518,0.0 -8.274045807481816,39.38745295792773,0.0 -8.274423538371366,39.38769531001055,0.0 -8.274809840366716,39.38792605472043,0.0 -8.27520318878771,39.388144281336054,0.0 -8.275602031107946,39.38834912855341,0.0 -8.276004793084402,39.38853978788597,0.0 -8.27640988497333,39.38871550685618,0.0 -8.276815707807808,39.38887559196561,0.0 -8.277220659712157,39.38901941143221,0.0 -8.277623142228187,39.38914639768358,0.0 -8.278021566628293,39.38925604959668,0.0 -8.278414360190373,39.389347934474976,0.0 -8.278799972409736,39.389421689755366,0.0 -8.279176881123412,39.38947702443799,0.0 -8.279543598522599,39.38951372023343,0.0 -8.279898677029456,39.3895316324228,0.0 -8.280240715014944,39.389530690427215,0.0 -8.280568362335098,39.38951089808462,0.0 -8.280880325663773,39.38947233363268,0.0 -8.281175373600803,39.38941514939807,0.0 -8.281452341535283,39.38933957119325,0.0 -8.28171013624479,39.38924589742314,0.0 -8.281947740212287,39.38913449790543,0.0 -8.282164215643684,39.38900581240904,0.0</coordinates>
                        </LinearRing>
                    </outerBoundaryIs>
                </Polygon>
            </MultiGeometry>
        </Placemark>
        <Placemark id="21">
            <name>Impact Ellipse 3</name>
            <visibility>1</visibility>
            <styleUrl>#26</styleUrl>
            <MultiGeometry id="20">
                <Polygon id="22">
                    <outerBoundaryIs>
                        <LinearRing id="24">
                            <coordinates>-8.28524102076551,39.390913188233675,0.0 -8.285498631104849,39.390670680834305,0.0 -8.28572109654632,39.390404825645504,0.0 -8.285907539308647,39.390116672079294,0.0 -8.286057223863708,39.38980735752013,0.0 -8.286169559834974,39.389478102833515,0.0 -8.28624410432177,39.38913020754552,0.0 -8.28628056364029,39.38876504471243,0.0 -8.286278794474589,39.388384055500836,0.0 -8.286238804433168,39.387988743499335,0.0 -8.286160752009048,39.387580668784715,0.0 -8.286044945943711,39.38716144176555,0.0 -8.285891843997511,39.386732716827915,0.0 -8.285702051131649,39.38629618580804,0.0 -8.285476317109035,39.38585357131767,0.0 -8.285215533523687,39.38540661994848,0.0 -8.284920730270578,39.38495709538239,0.0 -8.284593071470066,39.38450677143467,0.0 -8.284233850863123,39.384057425057556,0.0 -8.28384448669574,39.383610829331666,0.0 -8.283426516112826,39.38316874647296,0.0 -8.282981589083887,39.38273292088272,0.0 -8.28251146188455,39.38230507226781,0.0 -8.282017990159822,39.381886888858624,0.0 -8.281503121596472,39.38148002075086,0.0 -8.280968888233584,39.381086073397924,0.0 -8.280417398441644,39.38070660127913,0.0 -8.27985082860184,39.38034310176886,0.0 -8.279271414518409,39.37999700923069,0.0 -8.278681442597913,39.37966968935985,0.0 -8.278083240830188,39.379362433796146,0.0 -8.277479169606515,39.37907645502871,0.0 -8.276871612411124,39.37881288161259,0.0 -8.276262966422712,39.378572753715936,0.0 -8.275655633062877,39.378357019015574,0.0 -8.275052008528684,39.378166528956825,0.0 -8.274454474346532,39.37800203539276,0.0 -8.273865387984456,39.37786418761565,0.0 -8.273287073559725,39.37775352979286,0.0 -8.272721812678245,39.37767049881688,0.0 -8.27217183544171,39.37761542257842,0.0 -8.271639311657843,39.37758851866905,0.0 -8.271126342288209,39.377589893518895,0.0 -8.270634951167178,39.37761954197259,0.0 -8.270167077024578,39.37767734730537,0.0 -8.269724565843351,39.37776308167922,0.0 -8.269309163582207,39.3778764070375,0.0 -8.268922509291935,39.37801687643428,0.0 -8.268566128652358,39.37818393579371,0.0 -8.268241427955399,39.37837692609191,0.0 -8.267949688557936,39.37859508595353,0.0 -8.267692061826258,39.37883755465217,0.0 -8.26746956459209,39.37910337550347,0.0 -8.2672830751381,39.37939149963692,0.0 -8.267133329728761,39.379700790132254,0.0 -8.267020919700311,39.38003002650345,0.0 -8.266946289121353,39.380377909513285,0.0 -8.266909733033419,39.3807430662991,0.0 -8.26691139627856,39.381124055789705,0.0 -8.266951272918714,39.38151937439208,0.0 -8.267029206249255,39.381927461925336,0.0 -8.267144889406888,39.38234670777875,0.0 -8.26729786656958,39.382775457269204,0.0 -8.267487534744044,39.38321201817326,0.0 -8.267713146133824,39.38365466740792,0.0 -8.267973811078901,39.384101657833504,0.0 -8.268268501555326,39.384551225152194,0.0 -8.268596055221295,39.38500159487449,0.0 -8.268955179993872,39.38545098932624,0.0 -8.269344459138432,39.385897634668666,0.0 -8.269762356850926,39.38633976790333,0.0 -8.270207224311061,39.386775643834504,0.0 -8.27067730618264,39.38720354196137,0.0 -8.271170747535507,39.38762177327276,0.0 -8.271685601161872,39.38802868691751,0.0 -8.272219835258218,39.38842267672404,0.0 -8.272771341442493,39.38880218754356,0.0 -8.27333794307499,39.38916572139133,0.0 -8.273917403850083,39.389511843362264,0.0 -8.274507436624855,39.38983918729694,0.0 -8.275105712449761,39.390146461176066,0.0 -8.275709869765596,39.390432452221646,0.0 -8.276317523730402,39.39069603168504,0.0 -8.276926275639374,39.39093615930269,0.0 -8.27753372240048,39.391151887402195,0.0 -8.278137466028253,39.3913423646423,0.0 -8.278735123118116,39.39150683937213,0.0 -8.279324334263702,39.3916446625964,0.0 -8.279902773379835,39.391755290534995,0.0 -8.280468156894152,39.391838286766706,0.0 -8.281018252770963,39.391893323948764,0.0 -8.281550889331516,39.39192018510553,0.0 -8.282063963835695,39.391918764481126,0.0 -8.282555450791094,39.39188906795279,0.0 -8.283023409956515,39.39183121300348,0.0 -8.28346599400816,39.39174542825366,0.0 -8.283881455838106,39.39163205255446,0.0 -8.284268155456132,39.3914915336457,0.0 -8.28462456646757,39.391324426384074,0.0 -8.28494928210151,39.39113139054889,0.0</coordinates>
                        </LinearRing>
                    </outerBoundaryIs>
                </Polygon>
            </MultiGeometry>
        </Placemark>
        <Placemark id="30">
            <name>Launch Pad</name>
            <description>Flight initial position</description>
            <Point id="29">
                <coordinates>-8.288964,39.3897,0.0</coordinates>
            </Point>
        </Placemark>
    </Document>
</kml>
