<?xml version="1.0" encoding="UTF-8"?>
<kml xmlns="http://www.opengis.net/kml/2.2" xmlns:gx="http://www.google.com/kml/ext/2.2">
    <Document id="1">
        <Style id="4">
            <LineStyle id="5">
                <color>641400F0</color>
                <colorMode>normal</colorMode>
            </LineStyle>
            <PolyStyle id="6">
                <color>641400F0</color>
                <colorMode>normal</colorMode>
                <fill>1</fill>
                <outline>1</outline>
            </PolyStyle>
        </Style>
        <open>1</open>
        <Placemark id="3">
            <name>Rocket Trajectory - Powered by RocketPy</name>
            <styleUrl>#4</styleUrl>
            <LineString id="2">
                <extrude>1</extrude>
                <altitudeMode>absolute</altitudeMode>
                <coordinates>-106.974998,32.990254,1471.4659423828125 -106.974998,32.990254,1471.4659423828125 -106.974998,32.990254,1471.4659423828125 -106.974998,32.990254,1471.4659423828125 -106.974998,32.990254,1471.4659423828125 -106.974998,32.990254,1471.4659423828125 -106.974998,32.990254,1471.4659423828125 -106.974998,32.990254,1471.4659423828127 -106.974998,32.990254,1471.4659423828125 -106.974998,32.990254,1471.4659423828125 -106.974998,32.990254,1471.4659423828125 -106.974998,32.990254,1471.4659423828125 -106.974998,32.990254,1471.4659423828125 -106.974998,32.990254,1471.4659423828123 -106.974998,32.990254,1471.4659423828125 -106.974998,32.990254,1471.4659423828125 -106.974998,32.990254000001435,1471.4659442038183 -106.974998,32.99025400001439,1471.4659606700952 -106.974998,32.990254000056495,1471.4660141957381 -106.974998,32.990254000148305,1471.4661308945986 -106.974998,32.990254008219374,1471.4763902800826 -106.974998,32.990254011511006,1471.4805743719626 -106.974998,32.990254014675735,1471.4845971560364 -106.974998,32.99025401839856,1471.4893293464472 -106.974998,32.99025402164883,1471.4934608618878 -106.974998,32.99025402527568,1471.4980710698608 -106.974998,32.990254029284834,1471.5031672143073 -106.974998,32.99025403845873,1471.514828434248 -106.974998,32.99025404918512,1471.5284630663953 -106.974998,32.990254061479554,1471.5440909035437 -106.974998,32.990254101504604,1471.5949679554853 -106.974998,32.990254152802585,1471.660174368067 -106.974998,32.990254187589535,1471.7043931196208 -106.974998,32.990254211225405,1471.7344373802568 -106.974998,32.99025423634937,1471.76637322698 -106.974998,32.99025426293641,1471.8001688179422 -106.974998,32.99025432038533,1471.8731938770545 -106.974998,32.99025438338141,1471.9532700937916 -106.974998,32.990254451720936,1472.040138530638 -106.974998,32.990254506143536,1472.109316745105 -106.974998,32.9902545633534,1472.1820379379055 -106.974998,32.990254609884865,1472.2411854968827 -106.974998,32.990254658071606,1472.3024371230908 -106.974998,32.99025470791657,1472.3657965720624 -106.974998,32.990254812592035,1472.4988527168284 -106.974998,32.99025492393638,1472.640385884761 -106.974998,32.9902550419728,1472.7904255455232 -106.974998,32.99025516672497,1472.9490018043186 -106.974998,32.99025660585138,1474.7783189405684 -106.974998,32.990257028131296,1475.3150917282758 -106.97499800003108,32.99025712513426,1475.4381778892312 -106.97499800009349,32.99025722382547,1475.5631928052262 -106.97499800028146,32.99025742458919,1475.8170862491818 -106.9749980005965,32.990257632125015,1476.0787191344857 -106.97499800103952,32.99025784645191,1476.3481159116152 -106.9749980061531,32.99025926558462,1478.1159542921353 -106.97499801441998,32.990260930274516,1480.165507124905 -106.97499802255145,32.99026284322709,1482.500976897812 -106.97499802531364,32.99026443281964,1484.4311835050644 -106.97499802161568,32.99026616141779,1486.5228321029183 -106.97499800729528,32.990268029199534,1488.7768696396408 -106.97499797728562,32.990270036254266,1491.194217216159 -106.97499788577149,32.99027341714886,1495.2595517352838 -106.9749977158585,32.99027713173753,1499.7216327166154 -106.97499743672866,32.99028118011483,1504.583802314332 -106.97499701422743,32.99028556275208,1509.849358482975 -106.97499687497654,32.99028676958743,1511.2998734312382 -106.97499672272022,32.990287999575486,1512.7784765586807 -106.97499655683768,32.990289252714014,1514.2851712895865 -106.97499637672551,32.99029052899921,1515.8199513972368 -106.97499616946422,32.990291907751974,1517.4782139196557 -106.9749959448661,32.990293312556986,1519.1680531277968 -106.97499570228592,32.990294743437545,1520.889464393262 -106.97499499199839,32.99029854346781,1525.461662285416 -106.97499431222353,32.990301784621224,1529.3614039961499 -106.97499354012031,32.99030514283459,1533.4010590804432 -106.97499267302666,32.990308618967354,1537.5805713915806 -106.97499170967085,32.99031221405288,1541.8998844272587 -106.97499065019761,32.99031592926774,1546.3589419621755 -106.97498949619437,32.99031976589491,1550.9576883719128 -106.97498825062206,32.99032372527507,1555.696068350843 -106.97498650725905,32.99032904062966,1562.0437002066328 -106.97498462874339,32.9903345669773,1568.625532142852 -106.97498262816946,32.990340306231474,1575.4411372973589 -106.9749805188408,32.99034625933691,1582.4896032341985 -106.97497831231213,32.99035242645342,1589.769812302745 -106.97497666168525,32.99035701709655,1595.1757090745868 -106.97497496628118,32.990361718991906,1600.701736380206 -106.97497322637231,32.99036653166223,1606.3474737683412 -106.97497144082426,32.990371454559565,1612.1124908431082 -106.9749692497033,32.99037746510484,1619.1387337883543 -106.97496698403326,32.99038363047639,1626.3330210623706 -106.97496463627891,32.99038994993117,1633.6945632107445 -106.97496219853048,32.99039642300714,1641.2225506279337 -106.97495966382384,32.990403049584025,1648.9161437298253 -106.97495702714885,32.990409829814695,1656.774398167875 -106.97495428637102,32.990416763991725,1664.7961711091737 -106.97495144251634,32.990423852522326,1672.980231416076 -106.97495019959706,32.99042692176362,1676.5185467025487 -106.97494893908672,32.99043001918624,1680.0860552760446 -106.97494766149305,32.99043314481442,1683.6826644301373 -106.97494636736333,32.990436298663916,1687.3082810358082 -106.9749457494126,32.990437800840006,1689.0339321146412 -106.97494512794864,32.99043930933552,1690.7660470279422 -106.97494450303203,32.99044082414928,1692.5046157857832 -106.97494203222229,32.99044679628534,1699.3511469474083 -106.97493951297378,32.99045286439881,1706.2952140851835 -106.97493694779489,32.990459028118465,1713.336216299401 -106.97493484336664,32.990464076342086,1719.0939624724242 -106.97493271027189,32.99046918628364,1724.9142242975527 -106.97493054823957,32.99047435758501,1730.7966679202916 -106.9749283565242,32.9904795898785,1736.74095491063 -106.97492537453434,32.99048668803039,1744.7934482705987 -106.97492233396197,32.99049389405844,1752.9553013992224 -106.97491923129319,32.990501207448695,1761.2257756719948 -106.97491606345739,32.99050862804908,1769.6043165751362 -106.97491282858165,32.990516155976536,1778.0904582160247 -106.9749099707158,32.990522766631386,1785.5311613823553 -106.97490706296517,32.99052945828286,1793.0520162630844 -106.97490410683459,32.99053623113114,1800.6527274830798 -106.97490110433186,32.990543085326216,1808.3330049993133 -106.97489805761589,32.990550020926726,1816.0925575514314 -106.97489706437602,32.99055227861213,1818.6158926616972 -106.97489606678735,32.99055454478234,1821.1474587087748 -106.97489506489656,32.9905568194317,1823.687245727601 -106.97489405874425,32.990559102553576,1826.2352437219124 -106.97489135837124,32.990565224671606,1833.061540906436 -106.97488862824062,32.99057140666011,1839.9458210160897 -106.97488586818083,32.990577648317576,1846.887889878864 -106.97488307762349,32.99058394939357,1853.8875058315468 -106.97488025576278,32.99059030949676,1860.9442579698843 -106.97487740171405,32.99059672810906,1868.0575607544956 -106.97487451461514,32.9906032047331,1875.2267998431446 -106.97487370214714,32.99060502416423,1877.2393087561059 -106.97487288706299,32.990606848024626,1879.2560638171792 -106.9748720693931,32.99060867623787,1881.2769787599425 -106.97486981969723,32.990613699027946,1886.8258462954725 -106.97486755181643,32.990618752053045,1892.4032092726702 -106.97486526675144,32.99062383360092,1898.0071373644319 -106.97486449630318,32.990625544864606,1899.8932160004033 -106.97486372409037,32.99062725908218,1901.7819955558105 -106.97486295016066,32.9906289761887,1903.6734031527765 -106.97486136559327,32.99063248919668,1907.541287156453 -106.97485977450552,32.990636013409976,1911.4191944208183 -106.97485817733285,32.99063954826973,1915.3065060840158 -106.97485472492622,32.99064718135788,1923.6928783064307 -106.97485125084677,32.99065485529533,1932.113599838343 -106.974847759115,32.99066256445637,1940.5626596501797 -106.97484425344057,32.99067030303688,1949.033938300602 -106.97484253939226,32.99067408666549,1953.1722718716378 -106.97484082313642,32.99067787521997,1957.3137314032124 -106.9748391049651,32.99068166805025,1961.4576437838282 -106.97483768451579,32.99068480366402,1964.8818537231105 -106.97483626297962,32.9906879416078,1968.3071317603274 -106.9748348404051,32.990691081694706,1971.73328587425 -106.97483199231247,32.99069736761768,1978.587519455148 -106.97482914064975,32.99070365986515,1985.4429269918414 -106.97482628580104,32.99070995710147,1992.2981055607981 -106.9748234280606,32.990716258326984,1999.1519888141784 -106.97482056763292,32.990722562964045,2006.0039366319156 -106.97481770480893,32.99072887053395,2012.8534045869596 -106.97481484003227,32.990735180521526,2019.6998089812892 -106.97481047443809,32.99074479416034,2030.1197448278829 -106.97480610773323,32.990754410345055,2040.529196811363 -106.9748017420288,32.99076402714098,2050.9261398835997 -106.97479737912889,32.99077364253901,2061.308557681295 -106.97479302026139,32.99078325447214,2071.6744413764536 -106.97478888494487,32.990792378180934,2081.5021704275964 -106.97478554780504,32.99079974371408,2089.4279046899137 -106.97478221400591,32.990807103938316,2097.3407148265665 -106.97477888379085,32.99081445797183,2105.2397058005113 -106.9747755574618,32.990821804943,2113.123986028913 -106.97477223539697,32.990829143982815,2120.9926675884053 -106.97476791154925,32.99083869867802,2131.2263277052843 -106.97476733458862,32.99083997387985,2132.5912438898426 -106.97476675779204,32.9908412487858,2133.955631038525 -106.9747661811604,32.99084252339591,2135.319489243547 -106.97476560469438,32.99084379771059,2136.6828189495272 -106.97476445226295,32.99084634545585,2139.407895359404 -106.97476330050355,32.99084889202423,2142.130863445746 -106.97476214942232,32.99085143741809,2144.8517261454313 -106.97475975731271,32.99085672821459,2150.5045281234175 -106.97475736822291,32.99086201395752,2156.148260132961 -106.97475498221254,32.990867294665364,2161.782950922481 -106.97475259932902,32.99087257035367,2167.4086276519306 -106.97474891155473,32.9908807390094,2176.1119804725954 -106.97474523140912,32.990888895686,2184.7938328900473 -106.9747415588159,32.99089704043304,2193.454281039418 -106.97473789360328,32.990905173306956,2202.093420187677 -106.97473423554491,32.990913294374096,2210.711344711808 -106.97473058440806,32.990921403710225,2219.3081478263766 -106.97472693999768,32.99092950139811,2227.883921670254 -106.97472330218758,32.99093758752419,2236.438757618288 -106.97471967093396,32.99094566217469,2244.972746531943 -106.9747160462703,32.99095372543201,2253.4859788305694 -106.97471242828875,32.99096177736858,2261.9785410435907 -106.97470821047798,32.99097116917531,2271.873264952165 -106.9747040021441,32.990980545662865,2281.739986408526 -106.97469980341545,32.99098990686916,2291.578796851104 -106.97469561431757,32.990999252827315,2301.389785054641 -106.97469143476833,32.991008583574384,2311.1730399699377 -106.97468546354199,32.9910219242328,2325.1402180978107 -106.97468102004518,32.99103185878968,2335.525654149731 -106.97467658674208,32.99104177619287,2345.87975418702 -106.9746721635217,32.99105167653116,2356.2026245355055 -106.97466775040103,32.991061559891286,2366.4943713796356 -106.974663347498,32.991071426352455,2376.7551010636134 -106.9746585022299,32.99108229155966,2388.0389363118506 -106.97465366975948,32.99109313635423,2399.2852922222837 -106.9746488501571,32.99110396080089,2410.4943085027808 -106.9746440433613,32.99111476496525,2421.6661230005557 -106.97463924920224,32.991125548922646,2432.800871778827 -106.97463384013287,32.99113772547516,2445.3540340281074 -106.97462938137288,32.99114776997693,2455.693590830466 -106.9746249331967,32.99115779707402,2466.0010963741443 -106.97462049559712,32.9911678068501,2476.27665882688 -106.97461606862989,32.99117779938058,2486.520386021595 -106.97461165237961,32.99118777473151,2496.7323852966892 -106.97460724691953,32.99119773296176,2506.912763254563 -106.97460285228273,32.99120767412685,2517.061625552814 -106.97459846844988,32.9912175982837,2527.179076775187 -106.97459265387235,32.991230772757355,2540.5884121878635 -106.9745868580654,32.991243917408,2553.9425950459454 -106.97458108079456,32.991257032407105,2567.241863724228 -106.97457532189073,32.99127011793025,2580.4864546072636 -106.97456958129214,32.991283174147426,2593.676602500855 -106.9745638590354,32.991296201216194,2606.812540712119 -106.97455815531757,32.991309199387054,2619.894500160139 -106.97455724846587,32.991311267319645,2621.9734543184045 -106.97455634210203,32.99131333453728,2624.0510453900997 -106.97455543623241,32.99131540104648,2626.127274257737 -106.97455453086309,32.991317466853495,2628.20214180413 -106.97455272164646,32.99132159638346,2632.347796473491 -106.97455091449092,32.991325723169155,2636.4880164876868 -106.97454910942646,32.991329847245545,2640.622808962209 -106.97454730647343,32.99133396863946,2644.752181045484 -106.97454406630195,32.99134138090306,2652.1718767841007 -106.97454083298783,32.99134878457424,2659.574073773622 -106.9745376064142,32.99135617960679,2666.958814618252 -106.97453438639253,32.99136356588902,2674.326142174843 -106.9745311726996,32.99137094327428,2681.6760994179676 -106.97452703207554,32.991380455792275,2691.1409815668458 -106.97452290122492,32.99138995294865,2700.577066132159 -106.9745187799164,32.99139943460989,2709.9844437326924 -106.97451466813142,32.9914089008212,2719.3632031452626 -106.9745105660354,32.9914183517909,2728.7134329430087 -106.97450647391638,32.99142778785102,2738.035226543856 -106.97450239211199,32.991437209397084,2747.328682620876 -106.97449832093442,32.99144661681536,2756.593901088549 -106.97449426060395,32.9914560104187,2765.830980680443 -106.9744893719339,32.99146733598146,2776.948291105656 -106.9744844990889,32.9914786418041,2788.0248793522564 -106.97447964171515,32.991489927790944,2799.060915794891 -106.9744747993556,32.991501193744334,2810.056571060137 -106.97446997159989,32.99151243949039,2821.012013885023 -106.97446515819715,32.99152366497837,2831.9274092759274 -106.97446035910265,32.99153487032802,2842.802918533992 -106.97445557445693,32.991546055820265,2853.6387003604646 -106.97445080451631,32.991557221843095,2864.434911566663 -106.97444604956206,32.991568368814335,2875.19170701595 -106.97444130981464,32.99157949710611,2885.9092395690514 -106.97443658537463,32.991590606990954,2896.5876605869144 -106.97443187620333,32.991601698621515,2907.2271206036867 -106.97442718214413,32.99161277204488,2917.8277693797136 -106.97442250297388,32.991623827243195,2928.3897553434344 -106.97441783846556,32.99163486418639,2938.913225119767 -106.97441318844359,32.991645882881365,2949.398323506298 -106.97440855281816,32.99165688340435,2959.8451935372714 -106.97440393159286,32.99166786591047,2970.2539763211125 -106.97439932484754,32.99167883062121,2980.624810902152 -106.97439473270354,32.991689777796395,2990.9578344752927 -106.97438954331955,32.991702170318185,3002.6292562304816 -106.97438437298679,32.99171454097134,3014.2524306280006 -106.97437922173093,32.991726890014924,3025.827551547431 -106.97437408947228,32.9917392176144,3037.354810981719 -106.97436897605182,32.991751523861296,3048.8343991390334 -106.97436388128042,32.9917638088141,3060.266504202182 -106.97435880499113,32.9917760725436,3071.6513119739493 -106.9743537470768,32.99178831516729,3082.989005846521 -106.9743487075041,32.99180053686394,3094.2797668901503 -106.97434295660781,32.9918145129611,3107.157327276083 -106.97433722992395,32.991828462296965,3119.9737894848568 -106.97433152755657,32.99184238527576,3132.7294149756754 -106.97432584955186,32.99185628225283,3145.4244619923784 -106.9743201958671,32.99187015350575,3158.0591857447557 -106.97431456637456,32.99188399923523,3170.6338384911173 -106.97430896089588,32.99189781959253,3183.1486695818917 -106.97430337901856,32.991911614700584,3195.6039233837246 -106.97429887822766,32.991922760999834,3205.6407991223227 -106.9742943918092,32.99193389090713,3215.6389301769805 -106.97429083388596,32.9919427303763,3223.5624073526606 -106.97428728467479,32.991951559619395,3231.4615205852942 -106.97428374427741,32.991960378729104,3239.3363328077858 -106.9742802128952,32.99196918780651,3247.186907213058 -106.97427669077358,32.99197798695379,3255.013306886279 -106.97427175379528,32.99199034446502,3265.97868921526 -106.97426683619943,32.992002682772,3276.8965588314077 -106.97426193826986,32.99201500206306,3287.767084289715 -106.97425804736632,32.992024810215725,3296.3999190482236 -106.97425416871678,32.992034606415146,3305.0028459783325 -106.97425030206838,32.99204439070571,3313.5759449039033 -106.97424644711843,32.99205416312914,3322.1192945493963 -106.97424260355223,32.99206392372967,3330.63297274955 -106.9742387710928,32.992073672560196,3339.117056771876 -106.97423375958951,32.992086444875746,3350.2030635688475 -106.97422876667454,32.992099197231575,3361.2384388815153 -106.97422379243118,32.992111929845656,3372.2233574360775 -106.9742188371338,32.99212464295168,3383.1579937021597 -106.97421390112234,32.9921373367794,3394.0425208437996 -106.97420898468013,32.99215001153913,3404.877109839254 -106.97420249732403,32.99216678543856,3419.1638746300946 -106.97419727581445,32.992180327489,3430.654748886768 -106.97419207649078,32.99219384820591,3442.0888573685106 -106.97418689887677,32.992207347729504,3453.4663940660093 -106.97418174250012,32.9922208262063,3464.787549635723 -106.97417660699278,32.99223428379986,3476.052511975652 -106.97417149213508,32.99224772069225,3487.261466014637 -106.97416639785614,32.992261137082515,3498.4145953269135 -106.9741613242064,32.99227453318199,3509.5120835760836 -106.97415627130891,32.9922879092052,3520.5541136543366 -106.97415042685948,32.992303425130665,3533.3138315485426 -106.97414461071321,32.99231891453198,3545.9992078305845 -106.97413882279817,32.99233437767476,3558.610515159816 -106.97413306284041,32.99234981479641,3571.148021674278 -106.97412733043097,32.99236522611912,3583.611990975448 -106.97412162513396,32.9923806118653,3596.0026825455616 -106.97411594658175,32.99239597226925,3608.320352740745 -106.97411029452465,32.99241130758131,3620.565255694028 -106.97410466883348,32.99242661806497,3632.737643656793 -106.97409674227238,32.99244827110268,3649.862285897863 -106.97409058229216,32.99246516516261,3663.1493828175044 -106.97408445462814,32.992482029895264,3676.348556563192 -106.97407835915577,32.9924988656231,3689.4601317824595 -106.97407229562522,32.99251567264798,3702.4844276260005 -106.97406626367956,32.99253245125717,3715.4217578393636 -106.97405906057489,32.992552565016524,3730.844836324862 -106.97405325011833,32.99256885156539,3743.2643769339975 -106.97404746860711,32.99258511201943,3755.60229597849 -106.9740417158985,32.992601346665104,3767.858869170538 -106.97403599192076,32.9926175557915,3780.0343694980515 -106.97403029661601,32.99263373968097,3792.1290666466743 -106.97402915366554,32.992636994314424,3794.5538667168 -106.97402801186331,32.99264024793619,3796.975405679193 -106.9740268711972,32.99264350054562,3799.393685578167 -106.9740257316535,32.99264675214165,3801.8087084374984 -106.97402345588011,32.99265325228955,3806.628991103932 -106.97402118444163,32.99265974837328,3811.4362698214127 -106.97401891724725,32.99266624038905,3816.230560736068 -106.97401665422028,32.99267272833682,3821.0118800230853 -106.97401333099639,32.992682269785945,3828.0253746790127 -106.97401001654222,32.992691802463206,3835.0108581034347 -106.97400671081992,32.992701326422505,3841.968382568652 -106.974003413866,32.992710841736915,3848.8980005667668 -106.97400012577553,32.99272034849438,3855.7997647334096 -106.97399580199018,32.992732876676556,3864.8619010524894 -106.97399149423387,32.992745390375994,3873.8757771883484 -106.97398720284463,32.99275788981998,3882.841512145205 -106.97398292805494,32.99277037520533,3891.759222878242 -106.97397866995064,32.992782846687945,3900.629023940627 -106.97397442845839,32.99279530438021,3909.4510274542745 -106.97396823513702,32.99281355686836,3922.307951466732 -106.97396333985809,32.992828034742004,3932.4479069218983 -106.97395846542089,32.9928424940725,3942.5234716741274 -106.97395361115295,32.992856934887364,3952.534810236122 -106.97394877649754,32.99287135724419,3962.4820861438866 -106.97394396108412,32.992885761248886,3972.365462700579 -106.97393916475181,32.99290014706117,3982.185103169746 -106.97393438752562,32.99291451488768,3991.9411706800647 -106.97392962955773,32.992928864966025,4001.633827757167 -106.97392489105133,32.992943197544434,4011.263235676882 -106.97392017218488,32.992957512861636,4020.829553713367 -106.9739154730514,32.99297181113126,4030.3329386446303 -106.9739107936216,32.99298609253247,4039.7735444399746 -106.97390613373395,32.993000357207826,4049.151522182302 -106.97390149310984,32.993014605267334,4058.4670201379345 -106.97389562948406,32.99303266795517,4070.202345185062 -106.97388979550574,32.993050704164595,4081.837520355031 -106.97388399039544,32.99306871405689,4093.372835376914 -106.97387821352773,32.99308669783084,4104.80857724876 -106.97387246449873,32.993104655740154,4116.145030955585 -106.97386674312745,32.99312258809302,4127.382479585691 -106.97386104939758,32.993140495236766,4138.52120393438 -106.97385538336476,32.99315837753359,4149.561481662596 -106.97384974506092,32.99317623533532,4160.503586378546 -106.97384413442035,32.993194068963824,4171.347786981301 -106.97383855124008,32.99321187870041,4182.094347311584 -106.97383214729882,32.9932323845125,4194.364592441476 -106.97382577871402,32.993252859196154,4206.505759842574 -106.97381944470558,32.993273303039075,4218.518231283882 -106.97381314451253,32.9932937163282,4230.402382368365 -106.9738068774847,32.99331409937494,4242.158583691458 -106.97380064313452,32.99333445252929,4253.787201516152 -106.97379444113876,32.99335477618007,4265.288597801271 -106.97378827129634,32.993375070743504,4276.663130030201 -106.97378213346153,32.99339533664464,4287.911150624455 -106.9737760274743,32.9934155742979,4299.033006195356 -106.97376995310569,32.993435784092284,4310.029037158944 -106.97376391002966,32.99345596638381,4320.899577471216 -106.97375789782382,32.993476121495995,4331.644954592407 -106.97375191599288,32.99349624972696,4342.265489888715 -106.97374478360014,32.99352034668572,4354.834467551077 -106.97373769321364,32.99354440589952,4367.224986498187 -106.97373064401845,32.99356842786701,4379.43757139205 -106.97372363533235,32.99359241311431,4391.472738038519 -106.97371666661003,32.993616362195375,4403.330993733246 -106.9737071061,32.993649382935935,4419.419949251324 -106.97369955480393,32.99367560019236,4431.977668317815 -106.97369204995934,32.99370177615614,4444.323902282856 -106.97369055877414,32.99370699149622,4446.76084779763 -106.97368906938706,32.99371220522135,4449.189411356461 -106.97368758178014,32.99371741733316,4451.609597602525 -106.973686095935,32.99372262783307,4454.021411153056 -106.97368312946057,32.993733044004124,4458.819938539566 -106.97368016983006,32.99374345374953,4463.585030181356 -106.9736772169221,32.993753857087555,4468.316722550778 -106.97367427062969,32.99376425404029,4473.015051952371 -106.97366908142665,32.993782606420446,4481.2339876798505 -106.97366391220599,32.9938009391323,4489.349105896393 -106.97365876274822,32.99381925239818,4497.360603867404 -106.97365363296886,32.99383754647681,4505.268677537649 -106.97364852287487,32.99385582165086,4513.073521199702 -106.97364095212478,32.99388299328189,4524.50167861451 -106.97363342533106,32.993910124626225,4535.702104581295 -106.97362594247606,32.99393721655943,4546.6754028919895 -106.9736198256839,32.993959451672104,4555.523625858153 -106.97361373785894,32.99398166101311,4564.219168095091 -106.97360767844263,32.994003844879536,4572.762336902454 -106.97360164678767,32.99402600353365,4581.1534322542975 -106.97359564219258,32.99404813721272,4589.392747215585 -106.9735896639373,32.994070246139934,4597.480568634407 -106.97357835641374,32.99411225653062,4612.45587483001 -106.97356713789672,32.994154179785305,4626.885350713452 -106.97355899170033,32.994184772542305,4637.089303788387 -106.97355089105137,32.99421532066228,4647.003258173832 -106.97354283550732,32.994245825028614,4656.627899278794 -106.97353482459177,32.99427628648434,4665.963893768861 -106.97352685776461,32.99430670582083,4675.0118891926195 -106.97351893446329,32.99433708378781,4683.772514603756 -106.9735110540815,32.99436742108676,4692.246380862409 -106.97350321592877,32.99439771835789,4700.434080593607 -106.9734954192163,32.994427976176254,4708.336188647761 -106.97348396731431,32.99447263548003,4719.495985522073 -106.9734756538172,32.9945052150782,4727.257572657848 -106.9734673851066,32.9945377505973,4734.6881574433755 -106.9734591602714,32.99457024258184,4741.788380644858 -106.97345097850926,32.99460269156539,4748.558867741582 -106.97344283911475,32.994635098071086,4755.000230113708 -106.97343110426594,32.994682040034725,4763.7616519243265 -106.97341945563085,32.994728895188764,4771.833332912583 -106.97340789175149,32.99477566503067,4779.2170078675435 -106.97339641123482,32.99482235105171,4785.914370177126 -106.97338501263081,32.994868954776955,4791.927077625317 -106.9733736943265,32.99491547783247,4797.256757633578 -106.97336245444563,32.994961922040886,4801.905011300657 -106.97335321100108,32.99500029717567,4805.237373355241 -106.97334401820746,32.99503862121609,4808.105067484325 -106.97333487425126,32.995076895889255,4810.508956672747 -106.97332577697739,32.995115123266366,4812.449880277485 -106.97331672383315,32.99515330582602,4813.92864239717 -106.97330771181944,32.99519144650907,4814.945993458559 -106.97330037304927,32.995222596063755,4815.435348811001 -106.97329305731222,32.99525372205286,4815.617134416802 -106.97329238954964,32.99525656661371,4815.618417724809 -106.97329213076814,32.99525766913075,4815.618224382483 -106.97329186515971,32.995258800861684,4815.617421380231 -106.97329159957809,32.99525993256512,4815.616211756708 -106.97329106846819,32.995262195917256,4815.612979283468 -106.97329053746451,32.995264459160346,4815.608120390454 -106.97329000656616,32.99526672229534,4815.601635141275 -106.97328471346904,32.9952893039485,4815.447801062337 -106.97327942983652,32.99531187586548,4815.1320089713445 -106.97327415475367,32.99533443896905,4814.654267367857 -106.97326888734828,32.995356994140764,4814.014545258133 -106.97326204600458,32.995386322133974,4812.939922475097 -106.97325521504311,32.99541563934982,4811.590813660444 -106.97324839387362,32.99544494638874,4809.966775144702 -106.97324158290698,32.99547424283435,4808.067212903756 -106.97323478386359,32.99550352693766,4805.891394288555 -106.97323135770587,32.99551830173621,4804.688029923108 -106.9732309455984,32.99552012039854,4804.534454352189 -106.97323054566834,32.995521926732216,4804.380840707239 -106.973229769885,32.99552551502451,4804.073527771789 -106.97322904170439,32.99552905512635,4803.766024656805 -106.97322836004655,32.99553254813464,4803.4582945143475 -106.97322566624304,32.99554897719185,4801.949681480509 -106.9732239499875,32.995564417183886,4800.431204765134 -106.97322312004924,32.99557896079709,4798.9000071788705 -106.97322309800232,32.99559268772218,4797.35379116548 -106.97322445113208,32.99561204861013,4794.982654819639 -106.97322730535343,32.99562989401763,4792.568515353712 -106.97323150180034,32.99564638553549,4790.108476613087 -106.97323690728811,32.99566165870702,4787.600858760419 -106.97324341100054,32.995675826392876,4785.045096267103 -106.97325689529265,32.99569787614366,4780.53877014614 -106.97327295729448,32.99571734010721,4775.896505847624 -106.97329127439123,32.995734547997365,4771.127090004674 -106.9733115850771,32.995749767564405,4766.2417400005625 -106.97333366593233,32.99576322791133,4761.252549679374 -106.97335732306928,32.99577512812792,4756.171670543409 -106.97339808131765,32.995791363996894,4747.872551693144 -106.97344186074193,32.995804649683606,4739.41279665129 -106.97348816801107,32.9958154936071,4730.830044170721 -106.97353659265853,32.99582431913668,4722.155164059403 -106.97358679160713,32.9958314802913,4713.412467860528 -106.97363847971094,32.9958372713958,4704.620685006955 -106.97369471036802,32.99584219140194,4695.250719742525 -106.9737521197941,32.99584608296901,4685.854089602862 -106.97381051832713,32.99584914187963,4676.4399012934355 -106.97386975143398,32.995851527627885,4667.014730877996 -106.9739296935398,32.995853369791526,4657.583247523394 -106.97400715338286,32.99585509618487,4645.52872752585 -106.97408543819321,32.99585627809271,4633.473878648663 -106.97416441902573,32.99585704842554,4621.421682515626 -106.97424399875692,32.99585750722825,4609.373883469178 -106.97432423342492,32.99585773129554,4597.312082591619 -106.97440493719131,32.99585777838033,4585.256593369971 -106.97448606657724,32.99585769314404,4573.207857104393 -106.97456758844517,32.99585750957503,4561.166136770707 -106.97472753985934,32.99585695977688,4537.713759716862 -106.97488875937955,32.99585626442071,4514.289288277005 -106.97505117523596,32.99585549606875,4490.892702060463 -106.9752147442241,32.995854697832435,4467.523889380554 -106.97539196533553,32.99585383893968,4442.414753947877 -106.97543646931591,32.99585362522674,4436.142534892893 -106.9754810442638,32.99585341066343,4429.87237524915 -106.97552568229597,32.99585319337155,4423.604293287391 -106.97561156614621,32.995852762046376,4411.571425795893 -106.97569761812576,32.99585230562598,4399.546443050419 -106.97578380699049,32.995851816864196,4387.52942408321 -106.97592889550126,32.99585090978341,4367.353452594665 -106.97607422208404,32.995849877055754,4347.200125969232 -106.97621974539024,32.99584870922669,4327.0693650740695 -106.97636543917328,32.99584740037059,4306.961058661341 -106.97654429691379,32.995845595744896,4282.333799839666 -106.97672335969344,32.99584356775828,4257.740084045848 -106.97690261402084,32.99584131363201,4233.17972686439 -106.97708326830022,32.9958388143277,4208.4864847245235 -106.97726410527652,32.99583608388706,4183.82665903177 -106.97744512299822,32.995833122229406,4159.200074423416 -106.9776307179357,32.99582984909491,4134.010368063292 -106.97781650012271,32.9958263336267,4108.85517196559 -106.97800246889601,32.99582257606736,4083.7342922963403 -106.97819662970299,32.995818399378855,4057.569957102682 -106.97839099254655,32.99581395999726,4031.44252901348 -106.97858555705812,32.99580925827991,4005.351802778113 -106.97882897616037,32.995803014642426,3972.798981494546 -106.97907270907105,32.99579636262131,3940.3027610151057 -106.97931675520647,32.99578930292914,3907.862746111727 -106.97958207190851,32.995781177428626,3872.7055536401094 -106.97984775645433,32.995772573124675,3837.613658146402 -106.98011380814158,32.99576349091585,3802.586572091831 -106.98016719859186,32.99576161237725,3795.571016392064 -106.98022060021277,32.995759713804006,3788.5580535454533 -106.98027400150309,32.995757792411204,3781.5477162200496 -106.98035544506375,32.995754806493295,3770.855711816317 -106.98043679017248,32.995751743766185,3760.170047870901 -106.98051799013356,32.995748592917444,3749.4908116299875 -106.98065141834441,32.99574318822223,3731.9044930311024 -106.98078423852027,32.99573749245687,3714.335798448516 -106.98091638860564,32.99573149067803,3696.7846544338304 -106.98104782778852,32.99572517310805,3679.2509547399095 -106.98121706622246,32.99571650283389,3656.552607651817 -106.98138502250173,32.9957072812773,3633.88336332798 -106.98155167262306,32.9956975029156,3611.243053118427 -106.98170820747227,32.99568773115704,3589.838348263193 -106.98186355610287,32.995677457170046,3568.4592696263067 -106.98201771711949,32.995666680879076,3547.1056958145587 -106.98214679375782,32.995657203190156,3529.11850400247 -106.9822750254834,32.995647368557265,3511.149296674986 -106.98240241270533,32.995637177236716,3493.197998004874 -106.98253122088123,32.99562643683224,3474.9426245468917 -106.98265915518756,32.99561532744078,3456.705657616293 -106.9827862163799,32.99560384940949,3438.487023911035 -106.98303709496048,32.99557985141495,3402.19583838828 -106.98328450855348,32.995554390612426,3365.9767488088455 -106.98352846389128,32.99552746991313,3329.829183610247 -106.98390908362633,32.99548168890158,3272.5257545539025 -106.98400287911417,32.9954696697846,3258.22764887019 -106.98409613190708,32.99545742158067,3243.9405179185514 -106.98418884240898,32.99544494446458,3229.664401152559 -106.98425935092428,32.995435251856314,3218.758216203043 -106.98436722474732,32.99542007695059,3201.989291880473 -106.98447434578485,32.9954045857231,3185.2354429074526 -106.98448389590361,32.99540318388116,3183.736766938528 -106.98449343966233,32.995401779480694,3182.2382113852514 -106.98450297684238,32.995400372504356,3180.739776253908 -106.98452203027828,32.99539755072933,3177.743267396118 -106.98454105467988,32.995394718433786,3174.7472405357403 -106.98456004848053,32.9953918754927,3171.7516957847424 -106.9846232572705,32.99538230028746,3161.748752148551 -106.9846860628341,32.99537260137412,3151.751180928718 -106.9847484249726,32.99536277556068,3141.758968152826 -106.98481031476481,32.99535282056272,3131.772093609278 -106.98489898714523,32.99533818416168,3117.33101446397 -106.9849865770789,32.99532326999475,3102.90099395579 -106.98507305750675,32.99530807602352,3088.481961402209 -106.98515840986778,32.99529260089591,3074.073855566565 -106.98524261907187,32.99527684354053,3059.676624275752 -106.98538342715023,32.99524934520761,3035.1724706847135 -106.9855208555852,32.99522102383975,3010.699544065562 -106.98565489032639,32.995191879021114,2986.2576535413914 -106.98578552768728,32.995161911169376,2961.8466238580218 -106.98597921228156,32.995114372984766,2924.482411883465 -106.98616492683365,32.99506490612687,2887.1897236353907 -106.9863426837831,32.995013513940954,2849.9680511562433 -106.98668358942385,32.994901679415996,2773.5710787618596 -106.98699095517712,32.99478173205495,2697.4684269886934 -106.98726491748023,32.99465370531996,2621.6553393070085 -106.98729621433179,32.994637467711286,2612.3827626137017 -106.98732977395872,32.99461968144031,2602.287985003758 -106.98736284113559,32.99460184418361,2592.1980781034204 -106.98739547665673,32.994584011897715,2582.1129743237902 -106.98742925864873,32.99456538708406,2571.5528041899183 -106.9874626632506,32.99454685629775,2560.997864936541 -106.98749572048317,32.99452844706002,2550.448178632949 -106.98755387448712,32.994495971194226,2531.6462540504226 -106.98761108630565,32.9944640303294,2512.861082588073 -106.9876673985013,32.99443266258502,2494.0926239068817 -106.98772283543491,32.99440188922909,2475.340819228912 -106.98778087430853,32.99436982666053,2455.4107037074546 -106.98783795994314,32.99433846829375,2435.4993264148598 -106.98789410079804,32.994307820446984,2415.606617813736 -106.987943871977,32.99428082192203,2397.7017700456877 -106.9879928828364,32.99425440367187,2379.8119571556094 -106.9880411347442,32.994228565871595,2361.9371300709763 -106.9880842862364,32.99420561053039,2345.7215493456533 -106.98812681389593,32.99418313355837,2329.518244796802 -106.98816871836537,32.994161134741354,2313.3271781764797 -106.98822946921165,32.99412951827275,2289.436612577614 -106.98827223032094,32.9941074709678,2272.3081542456957 -106.98827761352136,32.99410470948754,2270.1306272072516 -106.98828298543316,32.994101956676076,2267.9533200422416 -106.98833922579725,32.994073298116405,2244.914372656921 -106.98833930781656,32.9940732565678,2244.8806135217824 -106.9883393898172,32.99407321503383,2244.8470634358764 -106.98833955378156,32.99407313199479,2244.7803757133825 -106.98833971767301,32.994073049012854,2244.714501690395 -106.98833988149327,32.994072966086705,2244.649419440947 -106.9883406542008,32.9940725751945,2244.3521958651277 -106.98834142551422,32.99407218539414,2244.0701667639396 -106.98834219556453,32.99407179658293,2243.8016751283926 -106.98834296446468,32.9940714086723,2243.545299011364 -106.98834412283213,32.99407082482195,2243.1786680610016 -106.98834527907951,32.994070242631196,2242.8333933395475 -106.98834643343608,32.99406966192036,2242.50663852341 -106.98834758609422,32.99406908253869,2242.196039012794 -106.98834873721367,32.99406850436097,2241.899646478232 -106.98835073652701,32.99406750107444,2241.4131340090653 -106.98835273216406,32.9940665006634,2240.957820163787 -106.98835472458364,32.99406550276838,2240.528268961101 -106.98835671414308,32.99406450710942,2240.1203158263133 -106.98835870113412,32.99406351345802,2239.730606646245 -106.98836068579791,32.994062521625224,2239.356408104674 -106.98836391246923,32.99406091036067,2238.7747811327927 -106.9883671341863,32.99405930296511,2238.2209194269776 -106.9883703514889,32.99405769901556,2237.6891209487226 -106.9883735648039,32.99405609817738,2237.1750329531187 -106.98837677447753,32.99405450017911,2236.675252811117 -106.98837998079368,32.99405290479803,2236.18710572458 -106.9883851320628,32.994050343476964,2235.421065445828 -106.98839027603971,32.99404778783253,2234.673006499985 -106.98839541333857,32.99404523738201,2233.9381831296655 -106.98840054445142,32.994042691738365,2233.213120447148 -106.98840566977657,32.99404015058798,2232.4952730940063 -106.98841302808133,32.99403650497747,2231.472376410596 -106.98842037585696,32.99403286752383,2230.45685696196 -106.98842771370566,32.994029237751576,2229.446160644296 -106.98843504209836,32.99402561528849,2228.43863793056 -106.98844236140647,32.99402199984075,2227.433238974917 -106.98845189050931,32.994017296495244,2226.1245460538275 -106.98846140518378,32.99401260427189,2224.8172849192083 -106.98847090581874,32.994007922862515,2223.5108747801773 -106.98848039270341,32.99400325203782,2222.20501724707 -106.98849044657165,32.99399830615564,2220.819462123246 -106.98850048539003,32.99399337184829,2219.434182062944 -106.98851050931368,32.9939884489927,2218.049085905109 -106.98852053207291,32.993983530819165,2216.6622404612335 -106.98853054009821,32.993978623968836,2215.2755112582477 -106.98854053345362,32.99397372839091,2213.88888756677 -106.98855050781891,32.99396884618451,2212.5029696724346 -106.98860092430141,32.99394423101067,2205.4679663628035 -106.98865096705013,32.99391990291819,2198.435268682175 -106.9887006368605,32.99389586127969,2191.4048444876885 -106.98883969673352,32.99382912919333,2171.4467182468243 -106.98897575353647,32.99376470374073,2151.506830592778 -106.98910880997127,32.99370258286754,2131.585120304343 -106.98938986852983,32.99357451744045,2087.999378795407 -106.9894556374316,32.99354522369744,2077.4785672077 -106.9894926172812,32.993528886084725,2071.5088401771914 -106.98952939315434,32.99351276875886,2065.5408178515722 -106.98956600524278,32.99349687942044,2059.5745394549895 -106.98960247790589,32.993481222709796,2053.610022087554 -106.98963882273067,32.99346580079474,2047.6472701965597 -106.98967504411924,32.9934506144515,2041.6862832530517 -106.9897342949076,32.99342617344064,2031.895534796022 -106.98979321587895,32.99340236853575,2022.1095360022264 -106.98985180700005,32.993379199400685,2012.3282777503566 -106.99007401704999,32.99329602816071,1974.7638402305936 -106.99029136048397,32.99322223210519,1937.268790934882 -106.99050384575442,32.99315779491179,1899.842647085483 -106.99084555978777,32.99307152026849,1837.922709179949 -106.99117397336136,32.99301086947439,1776.1888315594024 -106.99148912947852,32.99297576046161,1714.6386315463587 -106.99179106815704,32.99296611679159,1653.2699121950004 -106.99219586207936,32.99299584602048,1566.726162819912 -106.99222404736152,32.99299995187163,1560.4963563093504 -106.9922271701372,32.99300042427359,1559.8043751335172 -106.99223029122989,32.99300089988373,1559.1124166421575 -106.99223341066472,32.9930013784778,1558.42048090426 -106.99223964165233,32.993002346955926,1557.0367244566241 -106.99224586663617,32.99300332177585,1555.6530610661484 -106.99225585707032,32.99300489352591,1553.4308808603696 -106.99226583271526,32.99300647542213,1551.2089430047545 -106.99227579397565,32.99300806386696,1548.987248666833 -106.99229524834402,32.9930111840523,1544.639885296188 -106.99231464994833,32.99301430866684,1540.2934591712383 -106.99233399947693,32.99301743168174,1535.9479704424134 -106.99235329700674,32.9930205525166,1531.6034178657512 -106.99240312747982,32.99302864322347,1520.3345348595462 -106.99245260795621,32.99303672089949,1509.0719319731986 -106.99250173868387,32.993044784948935,1497.8155965100163 -106.99261548628897,32.99306362450216,1471.4659406566113</coordinates>
            </LineString>
        </Placemark>
    </Document>
</kml>
